[Satellite]
VERSION=1.1
NAME=FALCON 9 R/B
NICKNAME=FALCON 9 R/B
TLE1=1 42802U 17038B   17185.02402480 -.00001468  13655-5 -41306-4 0  9991
TLE2=2 42802  23.9691  29.0113 8324272 182.3019 166.0614  1.12286435   125
